[{"OBJECT_NAME":"ESEO","OBJECT_ID":"2018-099AL","EPOCH":"2026-03-09T15:43:37.559712","MEAN_MOTION":15.03914518,"ECCENTRICITY":0.00110626,"INCLINATION":97.4113,"RA_OF_ASC_NODE":110.2601,"ARG_OF_PERICENTER":317.6,"MEAN_ANOMALY":42.4371,"EPHEMERIS_TYPE":0,"CLASSIFICATION_TYPE":"U","NORAD_CAT_ID":43792,"ELEMENT_SET_NO":999,"REV_AT_EPOCH":39684,"BSTAR":0.00020934561,"MEAN_MOTION_DOT":2.831e-5,"MEAN_MOTION_DDOT":0},{"OBJECT_NAME":"STARLINK-35050","OBJECT_ID":"2025-194G","EPOCH":"2026-03-09T13:39:55.551744","MEAN_MOTION":15.05673487,"ECCENTRICITY":0.0001438,"INCLINATION":97.6015,"RA_OF_ASC_NODE":284.3372,"ARG_OF_PERICENTER":68.2557,"MEAN_ANOMALY":291.8822,"EPHEMERIS_TYPE":0,"CLASSIFICATION_TYPE":"U","NORAD_CAT_ID":65440,"ELEMENT_SET_NO":999,"REV_AT_EPOCH":2963,"BSTAR":0.00079353,"MEAN_MOTION_DOT":0.00011415,"MEAN_MOTION_DDOT":0}]
